[{"OBJECT_NAME":"STARLINK-33787","OBJECT_ID":"2025-071AC","EPOCH":"2026-03-09T11:10:17.912640","MEAN_MOTION":15.30188521,"ECCENTRICITY":0.00012529,"INCLINATION":53.1596,"RA_OF_ASC_NODE":143.1949,"ARG_OF_PERICENTER":63.8364,"MEAN_ANOMALY":296.2765,"EPHEMERIS_TYPE":0,"CLASSIFICATION_TYPE":"U","NORAD_CAT_ID":63519,"ELEMENT_SET_NO":999,"REV_AT_EPOCH":5233,"BSTAR":0.00088384149,"MEAN_MOTION_DOT":0.000259,"MEAN_MOTION_DDOT":0},{"OBJECT_NAME":"KUIPER-00222","OBJECT_ID":"2026-030U","EPOCH":"2026-03-09T16:13:57.726048","MEAN_MOTION":15.32445377,"ECCENTRICITY":0.00128002,"INCLINATION":51.8817,"RA_OF_ASC_NODE":219.7147,"ARG_OF_PERICENTER":40.1845,"MEAN_ANOMALY":320.0084,"EPHEMERIS_TYPE":0,"CLASSIFICATION_TYPE":"U","NORAD_CAT_ID":67782,"ELEMENT_SET_NO":999,"REV_AT_EPOCH":508,"BSTAR":0.0017317201,"MEAN_MOTION_DOT":0.00055223,"MEAN_MOTION_DDOT":0}]
